{
  "type": "FeatureCollection",
  "features": [
    {
      "type": "Feature",
      "properties": {
        "norad_id": 41877,
        "name": "RESOURCESAT-2A",
        "group": "resource",
        "lat": 6.542790701153854,
        "lon": 52.18093699641126,
        "alt_km": 822.0291478711397,
        "timestamp": "2025-12-09T07:41:32.860383+00:00",
        "meta_object_name": "RESOURCESAT-2A",
        "meta_object_id": "2016-074A",
        "meta_epoch": "2025-12-08T23:12:55.578816",
        "meta_mean_motion": 14.21597039,
        "meta_eccentricity": 0.00011245,
        "meta_inclination": 98.7759,
        "meta_ra_of_asc_node": 52.845,
        "meta_arg_of_pericenter": 274.1449,
        "meta_mean_anomaly": 85.9599,
        "meta_ephemeris_type": 0,
        "meta_classification_type": "U",
        "meta_norad_cat_id": 41877,
        "meta_element_set_no": 999,
        "meta_rev_at_epoch": 46727,
        "meta_bstar": 0.00017068254,
        "meta_mean_motion_dot": 3.3e-06,
        "meta_mean_motion_ddot": 0,
        "tle_line1": "1 41877U 16074A   25342.96730994  .00000330  00000+0  17068-3 0  9998",
        "tle_line2": "2 41877  98.7759  52.8450 0001124 274.1449  85.9599 14.21597039467279"
      },
      "geometry": {
        "type": "Point",
        "coordinates": [
          52.18093699641126,
          6.542790701153854
        ]
      }
    },
    {
      "type": "Feature",
      "properties": {
        "norad_id": 41948,
        "name": "CARTOSAT-2D",
        "group": "resource",
        "lat": -71.88077725181176,
        "lon": -162.66547061328387,
        "alt_km": 515.1507279917141,
        "timestamp": "2025-12-09T07:41:32.860393+00:00",
        "meta_object_name": "CARTOSAT-2D",
        "meta_object_id": "2017-008A",
        "meta_epoch": "2025-12-08T22:40:35.783904",
        "meta_mean_motion": 15.1919468,
        "meta_eccentricity": 0.0004274,
        "meta_inclination": 97.439,
        "meta_ra_of_asc_node": 40.4992,
        "meta_arg_of_pericenter": 173.1191,
        "meta_mean_anomaly": 187.0103,
        "meta_ephemeris_type": 0,
        "meta_classification_type": "U",
        "meta_norad_cat_id": 41948,
        "meta_element_set_no": 999,
        "meta_rev_at_epoch": 48869,
        "meta_bstar": 0.00017340876,
        "meta_mean_motion_dot": 3.581e-05,
        "meta_mean_motion_ddot": 0,
        "tle_line1": "1 41948U 17008A   25342.94485861  .00003581  00000+0  17341-3 0  9998",
        "tle_line2": "2 41948  97.4390  40.4992 0004274 173.1191 187.0103 15.19194680488697"
      },
      "geometry": {
        "type": "Point",
        "coordinates": [
          -162.66547061328387,
          -71.88077725181176
        ]
      }
    },
    {
      "type": "Feature",
      "properties": {
        "norad_id": 42063,
        "name": "SENTINEL-2B",
        "group": "resource",
        "lat": -41.58181349963408,
        "lon": -131.87666758527678,
        "alt_km": 796.091969060486,
        "timestamp": "2025-12-09T07:41:32.860404+00:00",
        "meta_object_name": "SENTINEL-2B",
        "meta_object_id": "2017-013A",
        "meta_epoch": "2025-12-08T22:15:58.347360",
        "meta_mean_motion": 14.30812743,
        "meta_eccentricity": 0.00011416,
        "meta_inclination": 98.572,
        "meta_ra_of_asc_node": 55.4271,
        "meta_arg_of_pericenter": 93.0805,
        "meta_mean_anomaly": 267.0508,
        "meta_ephemeris_type": 0,
        "meta_classification_type": "U",
        "meta_norad_cat_id": 42063,
        "meta_element_set_no": 999,
        "meta_rev_at_epoch": 45743,
        "meta_bstar": 1.2424479e-05,
        "meta_mean_motion_dot": -1.1e-07,
        "meta_mean_motion_ddot": 0,
        "tle_line1": "1 42063U 17013A   25342.92775865 -.00000011  00000+0  12424-4 0  9991",
        "tle_line2": "2 42063  98.5720  55.4271 0001141  93.0805 267.0508 14.30812743457438"
      },
      "geometry": {
        "type": "Point",
        "coordinates": [
          -131.87666758527678,
          -41.58181349963408
        ]
      }
    },
    {
      "type": "Feature",
      "properties": {
        "norad_id": 42767,
        "name": "CARTOSAT-2E",
        "group": "resource",
        "lat": 15.793385690840907,
        "lon": -136.92618587232045,
        "alt_km": 508.9539603768553,
        "timestamp": "2025-12-09T07:41:32.860414+00:00",
        "meta_object_name": "CARTOSAT-2E",
        "meta_object_id": "2017-036C",
        "meta_epoch": "2025-12-08T23:04:09.348384",
        "meta_mean_motion": 15.19260637,
        "meta_eccentricity": 0.00023197,
        "meta_inclination": 97.456,
        "meta_ra_of_asc_node": 40.5963,
        "meta_arg_of_pericenter": 257.9522,
        "meta_mean_anomaly": 102.1453,
        "meta_ephemeris_type": 0,
        "meta_classification_type": "U",
        "meta_norad_cat_id": 42767,
        "meta_element_set_no": 999,
        "meta_rev_at_epoch": 46926,
        "meta_bstar": 0.0002516852,
        "meta_mean_motion_dot": 5.238e-05,
        "meta_mean_motion_ddot": 0,
        "tle_line1": "1 42767U 17036C   25342.96121931  .00005238  00000+0  25169-3 0  9994",
        "tle_line2": "2 42767  97.4560  40.5963 0002319 257.9522 102.1453 15.19260637469266"
      },
      "geometry": {
        "type": "Point",
        "coordinates": [
          -136.92618587232045,
          15.793385690840907
        ]
      }
    },
    {
      "type": "Feature",
      "properties": {
        "norad_id": 42920,
        "name": "FORMOSAT-5",
        "group": "resource",
        "lat": -23.727093123147814,
        "lon": 61.361628237811686,
        "alt_km": 721.6134187043272,
        "timestamp": "2025-12-09T07:41:32.860429+00:00",
        "meta_object_name": "FORMOSAT-5",
        "meta_object_id": "2017-049A",
        "meta_epoch": "2025-12-08T21:52:21.382176",
        "meta_mean_motion": 14.51001622,
        "meta_eccentricity": 0.00100394,
        "meta_inclination": 98.2456,
        "meta_ra_of_asc_node": 57.3063,
        "meta_arg_of_pericenter": 308.512,
        "meta_mean_anomaly": 51.5174,
        "meta_ephemeris_type": 0,
        "meta_classification_type": "U",
        "meta_norad_cat_id": 42920,
        "meta_element_set_no": 999,
        "meta_rev_at_epoch": 43908,
        "meta_bstar": 0.00011375104,
        "meta_mean_motion_dot": 4.06e-06,
        "meta_mean_motion_ddot": 0,
        "tle_line1": "1 42920U 17049A   25342.91135859  .00000406  00000+0  11375-3 0  9994",
        "tle_line2": "2 42920  98.2456  57.3063 0010039 308.5120  51.5174 14.51001622439088"
      },
      "geometry": {
        "type": "Point",
        "coordinates": [
          61.361628237811686,
          -23.727093123147814
        ]
      }
    },
    {
      "type": "Feature",
      "properties": {
        "norad_id": 42969,
        "name": "SENTINEL-5P",
        "group": "resource",
        "lat": 37.861163450998816,
        "lon": -84.96383704153722,
        "alt_km": 823.6930580102216,
        "timestamp": "2025-12-09T07:41:32.860441+00:00",
        "meta_object_name": "SENTINEL-5P",
        "meta_object_id": "2017-064A",
        "meta_epoch": "2025-12-08T19:40:13.954080",
        "meta_mean_motion": 14.19516133,
        "meta_eccentricity": 9.537e-05,
        "meta_inclination": 98.7779,
        "meta_ra_of_asc_node": 281.4386,
        "meta_arg_of_pericenter": 87.1183,
        "meta_mean_anomaly": 273.0102,
        "meta_ephemeris_type": 0,
        "meta_classification_type": "U",
        "meta_norad_cat_id": 42969,
        "meta_element_set_no": 999,
        "meta_rev_at_epoch": 42255,
        "meta_bstar": 0.00011661741,
        "meta_mean_motion_dot": 2.02e-06,
        "meta_mean_motion_ddot": 0,
        "tle_line1": "1 42969U 17064A   25342.81960595  .00000202  00000+0  11662-3 0  9999",
        "tle_line2": "2 42969  98.7779 281.4386 0000953  87.1183 273.0102 14.19516133422553"
      },
      "geometry": {
        "type": "Point",
        "coordinates": [
          -84.96383704153722,
          37.861163450998816
        ]
      }
    },
    {
      "type": "Feature",
      "properties": {
        "norad_id": 42987,
        "name": "SKYSAT-C11",
        "group": "resource",
        "lat": 21.094473618423738,
        "lon": 117.84872958998668,
        "alt_km": 424.83760540061576,
        "timestamp": "2025-12-09T07:41:32.860451+00:00",
        "meta_object_name": "SKYSAT-C11",
        "meta_object_id": "2017-068A",
        "meta_epoch": "2025-12-08T22:17:15.384192",
        "meta_mean_motion": 15.4720227,
        "meta_eccentricity": 9.487e-05,
        "meta_inclination": 97.4145,
        "meta_ra_of_asc_node": 120.3269,
        "meta_arg_of_pericenter": 109.9513,
        "meta_mean_anomaly": 250.1839,
        "meta_ephemeris_type": 0,
        "meta_classification_type": "U",
        "meta_norad_cat_id": 42987,
        "meta_element_set_no": 999,
        "meta_rev_at_epoch": 45372,
        "meta_bstar": 0.0005192683,
        "meta_mean_motion_dot": 0.00026358,
        "meta_mean_motion_ddot": 0,
        "tle_line1": "1 42987U 17068A   25342.92865028  .00026358  00000+0  51927-3 0  9998",
        "tle_line2": "2 42987  97.4145 120.3269 0000948 109.9513 250.1839 15.47202270453723"
      },
      "geometry": {
        "type": "Point",
        "coordinates": [
          117.84872958998668,
          21.094473618423738
        ]
      }
    }
  ]
}